CCSDS_OMM_VERS = 2.0
CREATION_DATE  = 
ORIGINATOR     = 

OBJECT_NAME    = STARLINK-35405
OBJECT_ID      = 2025-259U
CENTER_NAME    = EARTH
REF_FRAME      = TEME
TIME_SYSTEM    = UTC
MEAN_ELEMENT_THEORY = SGP/SGP4

EPOCH          = 2025-12-09T12:00:02.000160
MEAN_MOTION    = 15.44506712
ECCENTRICITY   = .0001034
INCLINATION    = 42.9998
RA_OF_ASC_NODE = 66.2492
ARG_OF_PERICENTER = 286.4460
MEAN_ANOMALY   = 244.9395

EPHEMERIS_TYPE = 0
CLASSIFICATION_TYPE = U
NORAD_CAT_ID   = 66440
ELEMENT_SET_NO = 999
REV_AT_EPOCH   = 575
BSTAR          = -.48724E-1
MEAN_MOTION_DOT = -.2055437E-1
MEAN_MOTION_DDOT = 0

CCSDS_OMM_VERS = 2.0
CREATION_DATE  = 
ORIGINATOR     = 

OBJECT_NAME    = STARLINK-35426
OBJECT_ID      = 2025-259V
CENTER_NAME    = EARTH
REF_FRAME      = TEME
TIME_SYSTEM    = UTC
MEAN_ELEMENT_THEORY = SGP/SGP4

EPOCH          = 2025-12-09T12:43:52.511232
MEAN_MOTION    = 15.51236843
ECCENTRICITY   = .0017661
INCLINATION    = 42.9997
RA_OF_ASC_NODE = 66.0214
ARG_OF_PERICENTER = 239.7081
MEAN_ANOMALY   = 120.2032

EPHEMERIS_TYPE = 0
CLASSIFICATION_TYPE = U
NORAD_CAT_ID   = 66441
ELEMENT_SET_NO = 999
REV_AT_EPOCH   = 567
BSTAR          = .30182E-2
MEAN_MOTION_DOT = .18636E-2
MEAN_MOTION_DDOT = 0

CCSDS_OMM_VERS = 2.0
CREATION_DATE  = 
ORIGINATOR     = 

OBJECT_NAME    = STARLINK-34724
OBJECT_ID      = 2025-259W
CENTER_NAME    = EARTH
REF_FRAME      = TEME
TIME_SYSTEM    = UTC
MEAN_ELEMENT_THEORY = SGP/SGP4

EPOCH          = 2025-12-09T00:00:02.000160
MEAN_MOTION    = 15.49472751
ECCENTRICITY   = .00013126
INCLINATION    = 43.0009
RA_OF_ASC_NODE = 69.1254
ARG_OF_PERICENTER = 264.5323
MEAN_ANOMALY   = 10.4834

EPHEMERIS_TYPE = 0
CLASSIFICATION_TYPE = U
NORAD_CAT_ID   = 66442
ELEMENT_SET_NO = 999
REV_AT_EPOCH   = 567
BSTAR          = -.42422799E-1
MEAN_MOTION_DOT = -.2121366E-1
MEAN_MOTION_DDOT = 0

CCSDS_OMM_VERS = 2.0
CREATION_DATE  = 
ORIGINATOR     = 

OBJECT_NAME    = STARLINK-35219
OBJECT_ID      = 2025-259X
CENTER_NAME    = EARTH
REF_FRAME      = TEME
TIME_SYSTEM    = UTC
MEAN_ELEMENT_THEORY = SGP/SGP4

EPOCH          = 2025-12-08T22:48:33.716736
MEAN_MOTION    = 15.50624735
ECCENTRICITY   = .000096
INCLINATION    = 43.0000
RA_OF_ASC_NODE = 69.4110
ARG_OF_PERICENTER = 286.7645
MEAN_ANOMALY   = 73.3110

EPHEMERIS_TYPE = 0
CLASSIFICATION_TYPE = U
NORAD_CAT_ID   = 66443
ELEMENT_SET_NO = 999
REV_AT_EPOCH   = 547
BSTAR          = .17406E-2
MEAN_MOTION_DOT = .103295E-2
MEAN_MOTION_DDOT = 0

CCSDS_OMM_VERS = 2.0
CREATION_DATE  = 
ORIGINATOR     = 

OBJECT_NAME    = STARLINK-35360
OBJECT_ID      = 2025-259Y
CENTER_NAME    = EARTH
REF_FRAME      = TEME
TIME_SYSTEM    = UTC
MEAN_ELEMENT_THEORY = SGP/SGP4

EPOCH          = 2025-12-09T12:41:53.756160
MEAN_MOTION    = 15.50707040
ECCENTRICITY   = .0001736
INCLINATION    = 43.0001
RA_OF_ASC_NODE = 66.0098
ARG_OF_PERICENTER = 252.3375
MEAN_ANOMALY   = 107.7296

EPHEMERIS_TYPE = 0
CLASSIFICATION_TYPE = U
NORAD_CAT_ID   = 66444
ELEMENT_SET_NO = 999
REV_AT_EPOCH   = 567
BSTAR          = .26633E-2
MEAN_MOTION_DOT = .15986E-2
MEAN_MOTION_DDOT = 0

CCSDS_OMM_VERS = 2.0
CREATION_DATE  = 
ORIGINATOR     = 

OBJECT_NAME    = STARLINK-34698
OBJECT_ID      = 2025-259Z
CENTER_NAME    = EARTH
REF_FRAME      = TEME
TIME_SYSTEM    = UTC
MEAN_ELEMENT_THEORY = SGP/SGP4

EPOCH          = 2025-12-09T12:42:58.012704
MEAN_MOTION    = 15.50591232
ECCENTRICITY   = .0004383
INCLINATION    = 42.9972
RA_OF_ASC_NODE = 66.0163
ARG_OF_PERICENTER = 214.4466
MEAN_ANOMALY   = 145.6110

EPHEMERIS_TYPE = 0
CLASSIFICATION_TYPE = U
NORAD_CAT_ID   = 66445
ELEMENT_SET_NO = 999
REV_AT_EPOCH   = 556
BSTAR          = .1801E-2
MEAN_MOTION_DOT = .106839E-2
MEAN_MOTION_DDOT = 0

CCSDS_OMM_VERS = 2.0
CREATION_DATE  = 
ORIGINATOR     = 

OBJECT_NAME    = STARLINK-34986
OBJECT_ID      = 2025-259AA
CENTER_NAME    = EARTH
REF_FRAME      = TEME
TIME_SYSTEM    = UTC
MEAN_ELEMENT_THEORY = SGP/SGP4

EPOCH          = 2025-12-09T12:42:22.701888
MEAN_MOTION    = 15.50605562
ECCENTRICITY   = .0001821
INCLINATION    = 42.9991
RA_OF_ASC_NODE = 66.0124
ARG_OF_PERICENTER = 267.4968
MEAN_ANOMALY   = 92.5684

EPHEMERIS_TYPE = 0
CLASSIFICATION_TYPE = U
NORAD_CAT_ID   = 66446
ELEMENT_SET_NO = 999
REV_AT_EPOCH   = 567
BSTAR          = .19544E-2
MEAN_MOTION_DOT = .116141E-2
MEAN_MOTION_DDOT = 0

CCSDS_OMM_VERS = 2.0
CREATION_DATE  = 
ORIGINATOR     = 

OBJECT_NAME    = STARLINK-34851
OBJECT_ID      = 2025-259AB
CENTER_NAME    = EARTH
REF_FRAME      = TEME
TIME_SYSTEM    = UTC
MEAN_ELEMENT_THEORY = SGP/SGP4

EPOCH          = 2025-12-09T12:41:24.097632
MEAN_MOTION    = 15.50662980
ECCENTRICITY   = .0001585
INCLINATION    = 43.0003
RA_OF_ASC_NODE = 66.0078
ARG_OF_PERICENTER = 255.9268
MEAN_ANOMALY   = 104.1416

EPHEMERIS_TYPE = 0
CLASSIFICATION_TYPE = U
NORAD_CAT_ID   = 66447
ELEMENT_SET_NO = 999
REV_AT_EPOCH   = 556
BSTAR          = .28157E-2
MEAN_MOTION_DOT = .168962E-2
MEAN_MOTION_DDOT = 0

CCSDS_OMM_VERS = 2.0
CREATION_DATE  = 
ORIGINATOR     = 

OBJECT_NAME    = STARLINK-35355
OBJECT_ID      = 2025-259AC
CENTER_NAME    = EARTH
REF_FRAME      = TEME
TIME_SYSTEM    = UTC
MEAN_ELEMENT_THEORY = SGP/SGP4

EPOCH          = 2025-12-09T12:40:54.522048
MEAN_MOTION    = 15.50622991
ECCENTRICITY   = .0001953
INCLINATION    = 42.9983
RA_OF_ASC_NODE = 66.0045
ARG_OF_PERICENTER = 269.4610
MEAN_ANOMALY   = 90.6026

EPHEMERIS_TYPE = 0
CLASSIFICATION_TYPE = U
NORAD_CAT_ID   = 66448
ELEMENT_SET_NO = 999
REV_AT_EPOCH   = 567
BSTAR          = .17648E-2
MEAN_MOTION_DOT = .104751E-2
MEAN_MOTION_DDOT = 0

CCSDS_OMM_VERS = 2.0
CREATION_DATE  = 
ORIGINATOR     = 

OBJECT_NAME    = STARLINK-34720
OBJECT_ID      = 2025-259AD
CENTER_NAME    = EARTH
REF_FRAME      = TEME
TIME_SYSTEM    = UTC
MEAN_ELEMENT_THEORY = SGP/SGP4

EPOCH          = 2025-12-09T12:40:24.821184
MEAN_MOTION    = 15.50623965
ECCENTRICITY   = .0001708
INCLINATION    = 42.9997
RA_OF_ASC_NODE = 66.0022
ARG_OF_PERICENTER = 266.6030
MEAN_ANOMALY   = 93.4635

EPHEMERIS_TYPE = 0
CLASSIFICATION_TYPE = U
NORAD_CAT_ID   = 66449
ELEMENT_SET_NO = 999
REV_AT_EPOCH   = 556
BSTAR          = .16234E-2
MEAN_MOTION_DOT = .96227E-3
MEAN_MOTION_DDOT = 0

CCSDS_OMM_VERS = 2.0
CREATION_DATE  = 
ORIGINATOR     = 

OBJECT_NAME    = STARLINK-35334
OBJECT_ID      = 2025-259AE
CENTER_NAME    = EARTH
REF_FRAME      = TEME
TIME_SYSTEM    = UTC
MEAN_ELEMENT_THEORY = SGP/SGP4

EPOCH          = 2025-12-09T12:39:55.197216
MEAN_MOTION    = 15.50589947
ECCENTRICITY   = .0001228
INCLINATION    = 43.0008
RA_OF_ASC_NODE = 65.9977
ARG_OF_PERICENTER = 260.1999
MEAN_ANOMALY   = 99.8723

EPHEMERIS_TYPE = 0
CLASSIFICATION_TYPE = U
NORAD_CAT_ID   = 66450
ELEMENT_SET_NO = 999
REV_AT_EPOCH   = 567
BSTAR          = .23426E-3
MEAN_MOTION_DOT = .1343E-3
MEAN_MOTION_DDOT = 0

CCSDS_OMM_VERS = 2.0
CREATION_DATE  = 
ORIGINATOR     = 

OBJECT_NAME    = VIASAT-3 F2
OBJECT_ID      = 2025-261A
CENTER_NAME    = EARTH
REF_FRAME      = TEME
TIME_SYSTEM    = UTC
MEAN_ELEMENT_THEORY = SGP/SGP4

EPOCH          = 2025-12-06T17:04:58.090944
MEAN_MOTION    = 2.24196708
ECCENTRICITY   = .23030921
INCLINATION    = 5.5160
RA_OF_ASC_NODE = 292.8248
ARG_OF_PERICENTER = 186.8100
MEAN_ANOMALY   = 221.0538

EPHEMERIS_TYPE = 0
CLASSIFICATION_TYPE = U
NORAD_CAT_ID   = 66454
ELEMENT_SET_NO = 999
REV_AT_EPOCH   = 51
BSTAR          = 0
MEAN_MOTION_DOT = -.73E-6
MEAN_MOTION_DDOT = 0

