STARLINK-35405          
1 66440U 25259U   25343.50002315 -.02055437  00000+0 -48724-1 0  9999
2 66440  42.9998  66.2492 0001034 286.4460 244.9395 15.44506712  5758
STARLINK-35426          
1 66441U 25259V   25343.53046888  .00186360  00000+0  30182-2 0  9992
2 66441  42.9997  66.0214 0017661 239.7081 120.2032 15.51236843  5679
STARLINK-34724          
1 66442U 25259W   25343.00002315 -.02121366  00000+0 -42423-1 0  9991
2 66442  43.0009  69.1254 0001312 264.5323  10.4834 15.49472751  5672
STARLINK-35219          
1 66443U 25259X   25342.95039024  .00103295  00000+0  17406-2 0  9993
2 66443  43.0000  69.4110 0000960 286.7645  73.3110 15.50624735  5475
STARLINK-35360          
1 66444U 25259Y   25343.52909440  .00159860  00000+0  26633-2 0  9997
2 66444  43.0001  66.0098 0001736 252.3375 107.7296 15.50707040  5676
STARLINK-34698          
1 66445U 25259Z   25343.52983811  .00106839  00000+0  18010-2 0  9990
2 66445  42.9972  66.0163 0004383 214.4466 145.6110 15.50591232  5564
STARLINK-34986          
1 66446U 25259AA  25343.52942942  .00116141  00000+0  19544-2 0  9991
2 66446  42.9991  66.0124 0001821 267.4968  92.5684 15.50605562  5672
STARLINK-34851          
1 66447U 25259AB  25343.52875113  .00168962  00000+0  28157-2 0  9995
2 66447  43.0003  66.0078 0001585 255.9268 104.1416 15.50662980  5567
STARLINK-35355          
1 66448U 25259AC  25343.52840882  .00104751  00000+0  17648-2 0  9990
2 66448  42.9983  66.0045 0001953 269.4610  90.6026 15.50622991  5673
STARLINK-34720          
1 66449U 25259AD  25343.52806506  .00096227  00000+0  16234-2 0  9994
2 66449  42.9997  66.0022 0001708 266.6030  93.4635 15.50623965  5564
STARLINK-35334          
1 66450U 25259AE  25343.52772219  .00013430  00000+0  23426-3 0  9996
2 66450  43.0008  65.9977 0001228 260.1999  99.8723 15.50589947  5679
VIASAT-3 F2             
1 66454U 25261A   25340.71178346 -.00000073  00000+0  00000+0 0  9991
2 66454   5.5160 292.8248 2303092 186.8100 221.0538  2.24196708   518
